STARLINK-37975          
1 69707U 26147D   26195.09078091  .00141979  00000+0  72834-3 0  9993
2 69707  97.2835 231.4188 0000813   0.5078 359.6191 15.80865072  3687
STARLINK-37972          
1 69708U 26147E   26195.09002806  .00149923  00000+0  76848-3 0  9991
2 69708  97.2835 231.4196 0000821   6.7658 353.3622 15.80861434  3686
STARLINK-37963          
1 69709U 26147F   26195.08927479  .00149904  00000+0  76775-3 0  9991
2 69709  97.2837 231.4217 0001216 164.6780 195.4525 15.80879269  3684
STARLINK-37969          
1 69710U 26147G   26195.08852565  .00120820  00000+0  62164-3 0  9999
2 69710  97.2835 231.4219 0000263  69.9938 290.1358 15.80857293  3689
STARLINK-37956          
1 69711U 26147H   26195.08777266  .00140481  00000+0  72062-3 0  9997
2 69711  97.2835 231.4251 0001214 160.8400 199.2914 15.80870207  3685
STARLINK-38043          
1 69712U 26147J   26195.08702662  .00077142  00000+0  39906-3 0  9999
2 69712  97.2838 231.4231 0001512   1.5999 358.5274 15.80863037  3684
STARLINK-38020          
1 69713U 26147K   26195.08627616  .00138912  00000+0  71273-3 0  9991
2 69713  97.2837 231.4258 0002792 357.3397   2.7855 15.80866149  3688
STARLINK-38059          
1 69714U 26147L   26195.08551916  .00171065  00000+0  87349-3 0  9998
2 69714  97.2838 231.4263 0001075 128.8065 231.3299 15.80889401  3680
STARLINK-38061          
1 69715U 26147M   26195.08477119  .00191316  00000+0  97443-3 0  9998
2 69715  97.2835 231.4272 0000692  65.6447 294.4893 15.80891605  3683
STARLINK-38060          
1 69716U 26147N   26195.08401667  .00135314  00000+0  69474-3 0  9993
2 69716  97.2838 231.4285 0000583  35.3146 324.8160 15.80864522  3683
STARLINK-38040          
1 69717U 26147P   26195.08326593  .00172230  00000+0  87986-3 0  9994
2 69717  97.2832 231.4301 0000799  10.9573 349.1712 15.80875910  3685
STARLINK-37989          
1 69718U 26147Q   26195.14581022  .00168266  00000+0  85818-3 0  9998
2 69718  97.2843 231.4981 0002822 136.3133 223.8359 15.80919907  3697
STARLINK-38039          
1 69719U 26147R   26195.08176102  .00170733  00000+0  87221-3 0  9993
2 69719  97.2816 231.4293 0000504 130.0838 230.0475 15.80879653  3683
STARLINK-38003          
1 69720U 26147S   26195.08100906  .00178639  00000+0  91149-3 0  9991
2 69720  97.2827 231.4322 0000889 131.6338 228.5006 15.80885716  3687
STARLINK-38014          
1 69721U 26147T   26195.08026154  .00149155  00000+0  76360-3 0  9993
2 69721  97.2831 231.4328 0000766  83.1587 276.9768 15.80890430  3681
STARLINK-37915          
1 69722U 26147U   26195.07950714  .00156386  00000+0  80023-3 0  9996
2 69722  97.2827 231.4351 0001192 129.4807 230.6566 15.80881887  3685
STARLINK-38007          
1 69723U 26147V   26195.08190322  .00139234  00000+0  71351-3 0  9996
2 69723  97.2834 231.4299 0001246  60.0606 300.0786 15.80895513  3689
STARLINK-38008          
1 69724U 26147W   26195.07800644  .00147891  00000+0  75709-3 0  9990
2 69724  97.2829 231.4361 0000706  54.5767 305.5567 15.80895148  3681
STARLINK-38021          
1 69725U 26147X   26195.07725584  .00125045  00000+0  64291-3 0  9991
2 69725  97.2826 231.4376 0002692 355.7447   4.3798 15.80858547  3684
STARLINK-38015          
1 69726U 26147Y   26195.07650649  .00231477  00000+0  11731-2 0  9998
2 69726  97.2832 231.4385 0000410  77.2640 282.8674 15.80895507  3682
STARLINK-38010          
1 69727U 26147Z   26195.15882762  .00065586  00000+0  43660-3 0  9994
2 69727  97.2841 231.4786 0000926  80.6398 279.4972 15.75222753  3693
SXM-11                  
1 69728U 26148A   26195.10746083  .00000004  00000+0  00000+0 0  9997
2 69728   0.1154 265.4415 0001918 176.2566 128.4692  1.00269059   312
HAIYANG-2E              
1 69737U 26149A   26194.63575019 -.00000091  00000+0 -45287-4 0  9993
2 69737  99.3454 201.5813 0001579  93.5996 266.5337 13.79314717  1614
CZ-4B R/B               
1 69738U 26149B   26194.65226973  .00000049  00000+0  33597-4 0  9990
2 69738  99.3217 202.5607 0198197 334.5310  24.6204 14.30067210  1915
STARLINK-38033          
1 69739U 26150A   26195.07175351  .00177898  00000+0  90990-3 0  9999
2 69739  97.2823  33.3683 0002202  66.9757 293.1743 15.80833570  3146
STARLINK-38076          
1 69740U 26150B   26195.16668980 -.00191028  00000+0 -13033-2 0  9991
2 69740  97.2831  33.4335 0001304  73.1445  21.9349 15.75284156  3130
STARLINK-38074          
1 69741U 26150C   26195.06917191  .00190124  00000+0  97108-3 0  9992
2 69741  97.2826  33.3724 0002105  72.3682 287.7816 15.80832244  3145
STARLINK-38041          
1 69742U 26150D   26195.06847579  .00177313  00000+0  90691-3 0  9990
2 69742  97.2825  33.3736 0001445  78.6744 281.4687 15.80836168  3148
STARLINK-38087          
1 69743U 26150E   26195.06765972  .00215585  00000+0  10969-2 0  9990
2 69743  97.2812  33.3739 0001314  70.2728 289.8682 15.80851415  3142
STARLINK-38078          
1 69744U 26150F   26195.06690869  .00186381  00000+0  95233-3 0  9992
2 69744  97.2826  33.3749 0001802  87.0177 273.1297 15.80834064  3144
