OBJECT_NAME,OBJECT_ID,EPOCH,MEAN_MOTION,ECCENTRICITY,INCLINATION,RA_OF_ASC_NODE,ARG_OF_PERICENTER,MEAN_ANOMALY,EPHEMERIS_TYPE,CLASSIFICATION_TYPE,NORAD_CAT_ID,ELEMENT_SET_NO,REV_AT_EPOCH,BSTAR,MEAN_MOTION_DOT,MEAN_MOTION_DDOT
STARLINK-37975,2026-147D,2026-07-14T02:10:43.470624,15.80865072,.0000813,97.2835,231.4188,0.5078,359.6191,0,U,69707,999,368,.72834E-3,.141979E-2,0
STARLINK-37972,2026-147E,2026-07-14T02:09:38.424384,15.80861434,.0000821,97.2835,231.4196,6.7658,353.3622,0,U,69708,999,368,.76848E-3,.149923E-2,0
STARLINK-37963,2026-147F,2026-07-14T02:08:33.341856,15.80879269,.0001216,97.2837,231.4217,164.6780,195.4525,0,U,69709,999,368,.76775E-3,.149904E-2,0
STARLINK-37969,2026-147G,2026-07-14T02:07:28.616160,15.80857293,.0000263,97.2835,231.4219,69.9938,290.1358,0,U,69710,999,368,.62164E-3,.12082E-2,0
STARLINK-37956,2026-147H,2026-07-14T02:06:23.557824,15.80870207,.0001214,97.2835,231.4251,160.8400,199.2914,0,U,69711,999,368,.72062E-3,.140481E-2,0
STARLINK-38043,2026-147J,2026-07-14T02:05:19.099968,15.80863037,.0001512,97.2838,231.4231,1.5999,358.5274,0,U,69712,999,368,.39906E-3,.77142E-3,0
STARLINK-38020,2026-147K,2026-07-14T02:04:14.260224,15.80866149,.0002792,97.2837,231.4258,357.3397,2.7855,0,U,69713,999,368,.71273E-3,.138912E-2,0
STARLINK-38059,2026-147L,2026-07-14T02:03:08.855424,15.80889401,.0001075,97.2838,231.4263,128.8065,231.3299,0,U,69714,999,368,.87349E-3,.171065E-2,0
STARLINK-38061,2026-147M,2026-07-14T02:02:04.230816,15.80891605,.0000692,97.2835,231.4272,65.6447,294.4893,0,U,69715,999,368,.97443E-3,.191316E-2,0
STARLINK-38060,2026-147N,2026-07-14T02:00:59.040288,15.80864522,.0000583,97.2838,231.4285,35.3146,324.8160,0,U,69716,999,368,.69474E-3,.135314E-2,0
STARLINK-38040,2026-147P,2026-07-14T01:59:54.176352,15.80875910,.0000799,97.2832,231.4301,10.9573,349.1712,0,U,69717,999,368,.87986E-3,.17223E-2,0
STARLINK-37989,2026-147Q,2026-07-14T03:29:58.003008,15.80919907,.0002822,97.2843,231.4981,136.3133,223.8359,0,U,69718,999,369,.85818E-3,.168266E-2,0
STARLINK-38039,2026-147R,2026-07-14T01:57:44.152128,15.80879653,.0000504,97.2816,231.4293,130.0838,230.0475,0,U,69719,999,368,.87221E-3,.170733E-2,0
STARLINK-38003,2026-147S,2026-07-14T01:56:39.182784,15.80885716,.0000889,97.2827,231.4322,131.6338,228.5006,0,U,69720,999,368,.91149E-3,.178639E-2,0
STARLINK-38014,2026-147T,2026-07-14T01:55:34.597056,15.80890430,.0000766,97.2831,231.4328,83.1587,276.9768,0,U,69721,999,368,.7636E-3,.149155E-2,0
STARLINK-37915,2026-147U,2026-07-14T01:54:29.416896,15.80881887,.0001192,97.2827,231.4351,129.4807,230.6566,0,U,69722,999,368,.80023E-3,.156386E-2,0
STARLINK-38007,2026-147V,2026-07-14T01:57:56.438208,15.80895513,.0001246,97.2834,231.4299,60.0606,300.0786,0,U,69723,999,368,.71351E-3,.139234E-2,0
STARLINK-38008,2026-147W,2026-07-14T01:52:19.756416,15.80895148,.0000706,97.2829,231.4361,54.5767,305.5567,0,U,69724,999,368,.75709E-3,.147891E-2,0
STARLINK-38021,2026-147X,2026-07-14T01:51:14.904576,15.80858547,.0002692,97.2826,231.4376,355.7447,4.3798,0,U,69725,999,368,.64291E-3,.125045E-2,0
STARLINK-38015,2026-147Y,2026-07-14T01:50:10.160736,15.80895507,.000041,97.2832,231.4385,77.2640,282.8674,0,U,69726,999,368,.11731E-2,.231477E-2,0
STARLINK-38010,2026-147Z,2026-07-14T03:48:42.706368,15.75222753,.0000926,97.2841,231.4786,80.6398,279.4972,0,U,69727,999,369,.4366E-3,.65586E-3,0
SXM-11,2026-148A,2026-07-14T02:34:44.615712,1.00269059,.0001918,0.1154,265.4415,176.2566,128.4692,0,U,69728,999,31,0,.4E-7,0
HAIYANG-2E,2026-149A,2026-07-13T15:15:28.816416,13.79314717,.0001579,99.3454,201.5813,93.5996,266.5337,0,U,69737,999,161,-.45287E-4,-.91E-6,0
CZ-4B R/B,2026-149B,2026-07-13T15:39:16.104672,14.30067210,.0198197,99.3217,202.5607,334.5310,24.6204,0,U,69738,999,191,.33597E-4,.49E-6,0
STARLINK-38033,2026-150A,2026-07-14T01:43:19.503264,15.80833570,.0002202,97.2823,33.3683,66.9757,293.1743,0,U,69739,999,314,.9099E-3,.177898E-2,0
STARLINK-38076,2026-150B,2026-07-14T04:00:01.998720,15.75284156,.0001304,97.2831,33.4335,73.1445,21.9349,0,U,69740,999,313,-.13033E-2,-.191028E-2,0
STARLINK-38074,2026-150C,2026-07-14T01:39:36.453024,15.80832244,.0002105,97.2826,33.3724,72.3682,287.7816,0,U,69741,999,314,.97108E-3,.190124E-2,0
STARLINK-38041,2026-150D,2026-07-14T01:38:36.308256,15.80836168,.0001445,97.2825,33.3736,78.6744,281.4687,0,U,69742,999,314,.90691E-3,.177313E-2,0
STARLINK-38087,2026-150E,2026-07-14T01:37:25.799808,15.80851415,.0001314,97.2812,33.3739,70.2728,289.8682,0,U,69743,999,314,.10969E-2,.215585E-2,0
STARLINK-38078,2026-150F,2026-07-14T01:36:20.910816,15.80834064,.0001802,97.2826,33.3749,87.0177,273.1297,0,U,69744,999,314,.95233E-3,.186381E-2,0
